{"type":"FeatureCollection","features":[{"type":"Feature","properties":{"name":"Zarząd Zlewni w Augustowie","office":"government","opening_hours":"Mo-Fr 07:00-16:00","addr:postcode":"16-300","phone":"+48 87 643 28 07","email":"zz-augustow@wody.gov.pl","operator":"Państwowe Gospodarstwo Wodne Wody Polskie","government":"water","source:office":"Państwowe Gospodarstwo Wodne Wody Polskie - dane kontaktowe na dzień 27.11.2024","@id":"node/12328766669"},"geometry":{"type":"Point","coordinates":[22.9927039,53.8428484]}}],"cooperativeWork":{"meta":{"version":2,"type":1},"operations":[{"operationType":"modifyElement","data":{"id":"node/12328766669","operations":[{"operation":"setTags","data":{"addr:postcode":"16-300","phone":"+48 87 643 28 07","email":"zz-augustow@wody.gov.pl","operator":"Państwowe Gospodarstwo Wodne Wody Polskie","government":"water","source:office":"Państwowe Gospodarstwo Wodne Wody Polskie - dane kontaktowe na dzień 27.11.2024"}}]}}]}}
{"type":"FeatureCollection","features":[{"type":"Feature","properties":{"name":"Zarząd Zlewni w Białymstoku","office":"government","addr:postcode":"15-399","phone":"+48 85 748 12 00","email":"zz-bialystok@wody.gov.pl","operator":"Państwowe Gospodarstwo Wodne Wody Polskie","government":"water","source:office":"Państwowe Gospodarstwo Wodne Wody Polskie - dane kontaktowe na dzień 27.11.2024","@id":"node/12324823677"},"geometry":{"type":"Point","coordinates":[23.1160418,53.1169084]}}],"cooperativeWork":{"meta":{"version":2,"type":1},"operations":[{"operationType":"modifyElement","data":{"id":"node/12324823677","operations":[{"operation":"setTags","data":{"addr:postcode":"15-399","phone":"+48 85 748 12 00","email":"zz-bialystok@wody.gov.pl","operator":"Państwowe Gospodarstwo Wodne Wody Polskie","government":"water","source:office":"Państwowe Gospodarstwo Wodne Wody Polskie - dane kontaktowe na dzień 27.11.2024"}}]}}]}}
{"type":"FeatureCollection","features":[{"type":"Feature","properties":{"name":"Zarząd Zlewni w Olsztynie","office":"government","opening_hours":"Mo-Fr 07:00-16:00","addr:postcode":"10-526","phone":"+48 89 521 71 00","email":"zz-olsztyn@wody.gov.pl","operator":"Państwowe Gospodarstwo Wodne Wody Polskie","government":"water","source:office":"Państwowe Gospodarstwo Wodne Wody Polskie - dane kontaktowe na dzień 27.11.2024","@id":"node/12328735393"},"geometry":{"type":"Point","coordinates":[20.4815059,53.781809]}}],"cooperativeWork":{"meta":{"version":2,"type":1},"operations":[{"operationType":"modifyElement","data":{"id":"node/12328735393","operations":[{"operation":"setTags","data":{"addr:postcode":"10-526","phone":"+48 89 521 71 00","email":"zz-olsztyn@wody.gov.pl","operator":"Państwowe Gospodarstwo Wodne Wody Polskie","government":"water","source:office":"Państwowe Gospodarstwo Wodne Wody Polskie - dane kontaktowe na dzień 27.11.2024"}}]}}]}}
{"type":"FeatureCollection","features":[{"type":"Feature","properties":{"name":"Zarząd Zlewni w Ostrołęce","office":"government","opening_hours":"Mo-Fr 07:00-16:00","addr:postcode":"07-409","phone":"+48 29 760 32 26","email":"zz-ostroleka@wody.gov.pl","operator":"Państwowe Gospodarstwo Wodne Wody Polskie","government":"water","source:office":"Państwowe Gospodarstwo Wodne Wody Polskie - dane kontaktowe na dzień 27.11.2024","@id":"node/12328735380"},"geometry":{"type":"Point","coordinates":[21.5702338,53.0751852]}}],"cooperativeWork":{"meta":{"version":2,"type":1},"operations":[{"operationType":"modifyElement","data":{"id":"node/12328735380","operations":[{"operation":"setTags","data":{"addr:postcode":"07-409","phone":"+48 29 760 32 26","email":"zz-ostroleka@wody.gov.pl","operator":"Państwowe Gospodarstwo Wodne Wody Polskie","government":"water","source:office":"Państwowe Gospodarstwo Wodne Wody Polskie - dane kontaktowe na dzień 27.11.2024"}}]}}]}}
{"type":"FeatureCollection","features":[{"type":"Feature","properties":{"addr:city":"Augustów","addr:housenumber":"12","addr:postcode":"16-300","addr:street":"Portowa","government":"water","name":"Nadzór Wodny w Augustowie","office":"government","operator":"Państwowe Gospodarstwo Wodne Wody Polskie","phone":"+48 87 643 28 96","email":"nw-augustow@wody.gov.pl","source:office":"Państwowe Gospodarstwo Wodne Wody Polskie - dane kontaktowe na dzień 27.11.2024","@id":"node/9173197175"},"geometry":{"type":"Point","coordinates":[22.9941031,53.845264]}}],"cooperativeWork":{"meta":{"version":2,"type":1},"operations":[{"operationType":"modifyElement","data":{"id":"node/9173197175","operations":[{"operation":"setTags","data":{"government":"water","operator":"Państwowe Gospodarstwo Wodne Wody Polskie","phone":"+48 87 643 28 96","email":"nw-augustow@wody.gov.pl","source:office":"Państwowe Gospodarstwo Wodne Wody Polskie - dane kontaktowe na dzień 27.11.2024"}}]}}]}}
{"type":"FeatureCollection","features":[{"type":"Feature","properties":{"name":"Zarząd Zlewni w Inowrocławiu","office":"government","addr:postcode":"88-100","phone":"+48 52 356 57 50","email":"zz-inowroclaw@wody.gov.pl","operator":"Państwowe Gospodarstwo Wodne Wody Polskie","government":"water","source:office":"Państwowe Gospodarstwo Wodne Wody Polskie - dane kontaktowe na dzień 27.11.2024","@id":"node/12324711254"},"geometry":{"type":"Point","coordinates":[18.2585447,52.7964912]}}],"cooperativeWork":{"meta":{"version":2,"type":1},"operations":[{"operationType":"modifyElement","data":{"id":"node/12324711254","operations":[{"operation":"setTags","data":{"addr:postcode":"88-100","phone":"+48 52 356 57 50","email":"zz-inowroclaw@wody.gov.pl","operator":"Państwowe Gospodarstwo Wodne Wody Polskie","government":"water","source:office":"Państwowe Gospodarstwo Wodne Wody Polskie - dane kontaktowe na dzień 27.11.2024"}}]}}]}}
{"type":"FeatureCollection","features":[{"type":"Feature","properties":{"addr:city":"Więcbork","addr:housenumber":"9","addr:postcode":"89-410","addr:street":"Aleja 600-lecia","government":"water","name":"Nadzór Wodny w Więcborku","office":"government","phone":"+48 52 389 70 40","email":"nw-wiecbork@wody.gov.pl","operator":"Państwowe Gospodarstwo Wodne Wody Polskie","source:office":"Państwowe Gospodarstwo Wodne Wody Polskie - dane kontaktowe na dzień 27.11.2024","@id":"node/6355612142"},"geometry":{"type":"Point","coordinates":[17.4854429,53.3558494]}}],"cooperativeWork":{"meta":{"version":2,"type":1},"operations":[{"operationType":"modifyElement","data":{"id":"node/6355612142","operations":[{"operation":"setTags","data":{"government":"water","phone":"+48 52 389 70 40","email":"nw-wiecbork@wody.gov.pl","operator":"Państwowe Gospodarstwo Wodne Wody Polskie","source:office":"Państwowe Gospodarstwo Wodne Wody Polskie - dane kontaktowe na dzień 27.11.2024"}}]}}]}}
{"type":"FeatureCollection","features":[{"type":"Feature","properties":{"name":"Nadzór Wodny we Wschowie","office":"government","phone":"+48 65 511 45 15","website":"https://wschowa.info/nadzor-wodny-we-wschowie-slawie/","addr:postcode":"67-400","email":"nw-wschowa@wody.gov.pl","operator":"Państwowe Gospodarstwo Wodne Wody Polskie","government":"water","source:office":"Państwowe Gospodarstwo Wodne Wody Polskie - dane kontaktowe na dzień 27.11.2024","@id":"node/6879965468"},"geometry":{"type":"Point","coordinates":[16.3242246,51.807343]}}],"cooperativeWork":{"meta":{"version":2,"type":1},"operations":[{"operationType":"modifyElement","data":{"id":"node/6879965468","operations":[{"operation":"setTags","data":{"website":"https://wschowa.info/nadzor-wodny-we-wschowie-slawie/","addr:postcode":"67-400","email":"nw-wschowa@wody.gov.pl","operator":"Państwowe Gospodarstwo Wodne Wody Polskie","government":"water","source:office":"Państwowe Gospodarstwo Wodne Wody Polskie - dane kontaktowe na dzień 27.11.2024"}}]}}]}}
{"type":"FeatureCollection","features":[{"type":"Feature","properties":{"name":"Zarząd Zlewni w Elblągu","office":"government","addr:postcode":"82-300","phone":"+48 55 232 57 25","email":"zz-elblag@wody.gov.pl","operator":"Państwowe Gospodarstwo Wodne Wody Polskie","government":"water","source:office":"Państwowe Gospodarstwo Wodne Wody Polskie - dane kontaktowe na dzień 27.11.2024","@id":"node/12328844505"},"geometry":{"type":"Point","coordinates":[19.400318,54.1555476]}}],"cooperativeWork":{"meta":{"version":2,"type":1},"operations":[{"operationType":"modifyElement","data":{"id":"node/12328844505","operations":[{"operation":"setTags","data":{"addr:postcode":"82-300","phone":"+48 55 232 57 25","email":"zz-elblag@wody.gov.pl","operator":"Państwowe Gospodarstwo Wodne Wody Polskie","government":"water","source:office":"Państwowe Gospodarstwo Wodne Wody Polskie - dane kontaktowe na dzień 27.11.2024"}}]}}]}}
{"type":"FeatureCollection","features":[{"type":"Feature","properties":{"name":"Zarząd Zlewni w Tczewie","office":"government","opening_hours":"Mo-Fr 07:00-16:00","addr:postcode":"83-110","phone":"+48 58 531 36 47","email":"zz-tczew@wody.gov.pl","operator":"Państwowe Gospodarstwo Wodne Wody Polskie","government":"water","source:office":"Państwowe Gospodarstwo Wodne Wody Polskie - dane kontaktowe na dzień 27.11.2024","@id":"node/12328844508"},"geometry":{"type":"Point","coordinates":[18.7778275,54.0704323]}}],"cooperativeWork":{"meta":{"version":2,"type":1},"operations":[{"operationType":"modifyElement","data":{"id":"node/12328844508","operations":[{"operation":"setTags","data":{"addr:postcode":"83-110","phone":"+48 58 531 36 47","email":"zz-tczew@wody.gov.pl","operator":"Państwowe Gospodarstwo Wodne Wody Polskie","government":"water","source:office":"Państwowe Gospodarstwo Wodne Wody Polskie - dane kontaktowe na dzień 27.11.2024"}}]}}]}}
{"type":"FeatureCollection","features":[{"type":"Feature","properties":{"addr:city":"Gdańsk","addr:housenumber":"12","addr:postcode":"80-531","addr:street":"Sucha","government":"water","name":"Nadzór Wodny w Gdańsku","office":"government","opening_hours":"Mo-Fr 07:00-15:00","operator":"Państwowe Gospodarstwo Wodne Wody Polskie","phone":"+48 58 559 92 28","email":"nw-gdansk@wody.gov.pl","source:office":"Państwowe Gospodarstwo Wodne Wody Polskie - dane kontaktowe na dzień 27.11.2024","@id":"node/6677413937"},"geometry":{"type":"Point","coordinates":[18.6449055,54.392383]}}],"cooperativeWork":{"meta":{"version":2,"type":1},"operations":[{"operationType":"modifyElement","data":{"id":"node/6677413937","operations":[{"operation":"setTags","data":{"government":"water","phone":"+48 58 559 92 28","email":"nw-gdansk@wody.gov.pl","source:office":"Państwowe Gospodarstwo Wodne Wody Polskie - dane kontaktowe na dzień 27.11.2024"}}]}}]}}
{"type":"FeatureCollection","features":[{"type":"Feature","properties":{"name":"Zarząd Zlewni w Nowym Sączu","office":"government","addr:postcode":"33-300","phone":"+48 18 441 37 89","email":"zz-nowysacz@wody.gov.pl","operator":"Państwowe Gospodarstwo Wodne Wody Polskie","government":"water","source:office":"Państwowe Gospodarstwo Wodne Wody Polskie - dane kontaktowe na dzień 27.11.2024","@id":"node/12324666847"},"geometry":{"type":"Point","coordinates":[20.7050176,49.6271057]}}],"cooperativeWork":{"meta":{"version":2,"type":1},"operations":[{"operationType":"modifyElement","data":{"id":"node/12324666847","operations":[{"operation":"setTags","data":{"addr:postcode":"33-300","phone":"+48 18 441 37 89","email":"zz-nowysacz@wody.gov.pl","operator":"Państwowe Gospodarstwo Wodne Wody Polskie","government":"water","source:office":"Państwowe Gospodarstwo Wodne Wody Polskie - dane kontaktowe na dzień 27.11.2024"}}]}}]}}
{"type":"FeatureCollection","features":[{"type":"Feature","properties":{"name":"Zarząd Zlewni w Sandomierzu","office":"government","addr:postcode":"27-600","phone":"+48 12 628 42 42","email":"zz-sandomierz@wody.gov.pl","operator":"Państwowe Gospodarstwo Wodne Wody Polskie","government":"water","source:office":"Państwowe Gospodarstwo Wodne Wody Polskie - dane kontaktowe na dzień 27.11.2024","@id":"node/12324666845"},"geometry":{"type":"Point","coordinates":[21.7508333,50.679026]}}],"cooperativeWork":{"meta":{"version":2,"type":1},"operations":[{"operationType":"modifyElement","data":{"id":"node/12324666845","operations":[{"operation":"setTags","data":{"addr:postcode":"27-600","phone":"+48 12 628 42 42","email":"zz-sandomierz@wody.gov.pl","operator":"Państwowe Gospodarstwo Wodne Wody Polskie","government":"water","source:office":"Państwowe Gospodarstwo Wodne Wody Polskie - dane kontaktowe na dzień 27.11.2024"}}]}}]}}
{"type":"FeatureCollection","features":[{"type":"Feature","properties":{"name":"Zarząd Zlewni w Żywcu","office":"government","addr:postcode":"34-300","phone":"+48 12 628 41 32","email":"zz-zywiec@wody.gov.pl","operator":"Państwowe Gospodarstwo Wodne Wody Polskie","government":"water","source:office":"Państwowe Gospodarstwo Wodne Wody Polskie - dane kontaktowe na dzień 27.11.2024","@id":"node/12324666849"},"geometry":{"type":"Point","coordinates":[19.1865888,49.6842338]}}],"cooperativeWork":{"meta":{"version":2,"type":1},"operations":[{"operationType":"modifyElement","data":{"id":"node/12324666849","operations":[{"operation":"setTags","data":{"addr:postcode":"34-300","phone":"+48 12 628 41 32","email":"zz-zywiec@wody.gov.pl","operator":"Państwowe Gospodarstwo Wodne Wody Polskie","government":"water","source:office":"Państwowe Gospodarstwo Wodne Wody Polskie - dane kontaktowe na dzień 27.11.2024"}}]}}]}}
{"type":"FeatureCollection","features":[{"type":"Feature","properties":{"name":"Zarząd Zlewni w Sokołowie Podlaskim","office":"government","opening_hours":"Mo-Fr 08:00-16:00","addr:postcode":"08-300","phone":"+48 25 781 28 58","email":"zz-sokolowpodlaski@wody.gov.pl","operator":"Państwowe Gospodarstwo Wodne Wody Polskie","government":"water","source:office":"Państwowe Gospodarstwo Wodne Wody Polskie - dane kontaktowe na dzień 27.11.2024","@id":"node/12321488175"},"geometry":{"type":"Point","coordinates":[22.2681974,52.396771]}}],"cooperativeWork":{"meta":{"version":2,"type":1},"operations":[{"operationType":"modifyElement","data":{"id":"node/12321488175","operations":[{"operation":"setTags","data":{"addr:postcode":"08-300","phone":"+48 25 781 28 58","email":"zz-sokolowpodlaski@wody.gov.pl","operator":"Państwowe Gospodarstwo Wodne Wody Polskie","government":"water","source:office":"Państwowe Gospodarstwo Wodne Wody Polskie - dane kontaktowe na dzień 27.11.2024"}}]}}]}}
{"type":"FeatureCollection","features":[{"type":"Feature","properties":{"name":"Zarząd Zlewni w Zamościu","office":"government","opening_hours":"Mo-Fr 08:00-16:00","addr:postcode":"22-400","phone":"+48 84 677 59 70","email":"zz-zamosc@wody.gov.pl","operator":"Państwowe Gospodarstwo Wodne Wody Polskie","government":"water","source:office":"Państwowe Gospodarstwo Wodne Wody Polskie - dane kontaktowe na dzień 27.11.2024","@id":"node/12321488177"},"geometry":{"type":"Point","coordinates":[23.2754966,50.7051147]}}],"cooperativeWork":{"meta":{"version":2,"type":1},"operations":[{"operationType":"modifyElement","data":{"id":"node/12321488177","operations":[{"operation":"setTags","data":{"addr:postcode":"22-400","phone":"+48 84 677 59 70","email":"zz-zamosc@wody.gov.pl","operator":"Państwowe Gospodarstwo Wodne Wody Polskie","government":"water","source:office":"Państwowe Gospodarstwo Wodne Wody Polskie - dane kontaktowe na dzień 27.11.2024"}}]}}]}}
{"type":"FeatureCollection","features":[{"type":"Feature","properties":{"name":"Zarząd Zlewni w Poznaniu","office":"government","opening_hours":"Mo-Fr 07:00-16:00","addr:postcode":"61-760","phone":"+48 61 850 84 00","email":"zz-poznan@wody.gov.pl","operator":"Państwowe Gospodarstwo Wodne Wody Polskie","government":"water","source:office":"Państwowe Gospodarstwo Wodne Wody Polskie - dane kontaktowe na dzień 27.11.2024","@id":"node/12321528745"},"geometry":{"type":"Point","coordinates":[16.9361216,52.4090156]}}],"cooperativeWork":{"meta":{"version":2,"type":1},"operations":[{"operationType":"modifyElement","data":{"id":"node/12321528745","operations":[{"operation":"setTags","data":{"addr:postcode":"61-760","phone":"+48 61 850 84 00","email":"zz-poznan@wody.gov.pl","operator":"Państwowe Gospodarstwo Wodne Wody Polskie","government":"water","source:office":"Państwowe Gospodarstwo Wodne Wody Polskie - dane kontaktowe na dzień 27.11.2024"}}]}}]}}
{"type":"FeatureCollection","features":[{"type":"Feature","properties":{"name":"Zarząd Zlewni w Sieradzu","office":"government","opening_hours":"Mo-Fr 07:00-16:00","addr:postcode":"98-200","phone":"+48 43 655 41 00","email":"zz-sieradz@wody.gov.pl","operator":"Państwowe Gospodarstwo Wodne Wody Polskie","government":"water","source:office":"Państwowe Gospodarstwo Wodne Wody Polskie - dane kontaktowe na dzień 27.11.2024","@id":"node/12321528750"},"geometry":{"type":"Point","coordinates":[18.7353142,51.5939554]}}],"cooperativeWork":{"meta":{"version":2,"type":1},"operations":[{"operationType":"modifyElement","data":{"id":"node/12321528750","operations":[{"operation":"setTags","data":{"addr:postcode":"98-200","phone":"+48 43 655 41 00","email":"zz-sieradz@wody.gov.pl","operator":"Państwowe Gospodarstwo Wodne Wody Polskie","government":"water","source:office":"Państwowe Gospodarstwo Wodne Wody Polskie - dane kontaktowe na dzień 27.11.2024"}}]}}]}}
{"type":"FeatureCollection","features":[{"type":"Feature","properties":{"name":"Zarząd Zlewni w Kaliszu","office":"government","opening_hours":"Mo-Fr 07:00-16:00","addr:postcode":"62-800","phone":"+48 62 600 60 00","email":"zz-kalisz@wody.gov.pl","operator":"Państwowe Gospodarstwo Wodne Wody Polskie","government":"water","source:office":"Państwowe Gospodarstwo Wodne Wody Polskie - dane kontaktowe na dzień 27.11.2024","@id":"node/12321528737"},"geometry":{"type":"Point","coordinates":[18.1003438,51.7733015]}}],"cooperativeWork":{"meta":{"version":2,"type":1},"operations":[{"operationType":"modifyElement","data":{"id":"node/12321528737","operations":[{"operation":"setTags","data":{"addr:postcode":"62-800","phone":"+48 62 600 60 00","email":"zz-kalisz@wody.gov.pl","operator":"Państwowe Gospodarstwo Wodne Wody Polskie","government":"water","source:office":"Państwowe Gospodarstwo Wodne Wody Polskie - dane kontaktowe na dzień 27.11.2024"}}]}}]}}
{"type":"FeatureCollection","features":[{"type":"Feature","properties":{"name":"Zarząd Zlewni w Stalowej Woli","office":"government","addr:postcode":"37-464","phone":"+48 15 842 89 82","email":"zz-stalowawola@wody.gov.pl","operator":"Państwowe Gospodarstwo Wodne Wody Polskie","government":"water","source:office":"Państwowe Gospodarstwo Wodne Wody Polskie - dane kontaktowe na dzień 27.11.2024","@id":"node/12324555335"},"geometry":{"type":"Point","coordinates":[22.0439515,50.5913125]}}],"cooperativeWork":{"meta":{"version":2,"type":1},"operations":[{"operationType":"modifyElement","data":{"id":"node/12324555335","operations":[{"operation":"setTags","data":{"addr:postcode":"37-464","phone":"+48 15 842 89 82","email":"zz-stalowawola@wody.gov.pl","operator":"Państwowe Gospodarstwo Wodne Wody Polskie","government":"water","source:office":"Państwowe Gospodarstwo Wodne Wody Polskie - dane kontaktowe na dzień 27.11.2024"}}]}}]}}
{"type":"FeatureCollection","features":[{"type":"Feature","properties":{"government":"water","name":"Zarząd Zlewni w Szczecinie","office":"government","opening_hours":"Mo-Fr 08:00-16:00","addr:postcode":"71-011","phone":"+48 91 440 51 00","email":"zz-szczecin@wody.gov.pl","operator":"Państwowe Gospodarstwo Wodne Wody Polskie","source:office":"Państwowe Gospodarstwo Wodne Wody Polskie - dane kontaktowe na dzień 27.11.2024","@id":"node/12321365579"},"geometry":{"type":"Point","coordinates":[14.5072197,53.4073054]}}],"cooperativeWork":{"meta":{"version":2,"type":1},"operations":[{"operationType":"modifyElement","data":{"id":"node/12321365579","operations":[{"operation":"setTags","data":{"government":"water","addr:postcode":"71-011","phone":"+48 91 440 51 00","email":"zz-szczecin@wody.gov.pl","operator":"Państwowe Gospodarstwo Wodne Wody Polskie","source:office":"Państwowe Gospodarstwo Wodne Wody Polskie - dane kontaktowe na dzień 27.11.2024"}}]}}]}}
{"type":"FeatureCollection","features":[{"type":"Feature","properties":{"addr:city":"Warszawa","addr:housenumber":"13B","addr:postcode":"03-194","addr:street":"Zarzecze","alt_name":"RZGW Warszawa","government":"water","name":"Regionalny Zarząd Gospodarki Wodnej w Warszawie","office":"government","phone":"+48 22 587 02 11","email":"warszawa@wody.gov.pl","short_name":"RZGW w Warszawie","operator":"Państwowe Gospodarstwo Wodne Wody Polskie","source:office":"Państwowe Gospodarstwo Wodne Wody Polskie - dane kontaktowe na dzień 27.11.2024","@id":"node/8761442352"},"geometry":{"type":"Point","coordinates":[20.9883539,52.2973298]}}],"cooperativeWork":{"meta":{"version":2,"type":1},"operations":[{"operationType":"modifyElement","data":{"id":"node/8761442352","operations":[{"operation":"setTags","data":{"government":"water","phone":"+48 22 587 02 11","email":"warszawa@wody.gov.pl","short_name":"RZGW w Warszawie","operator":"Państwowe Gospodarstwo Wodne Wody Polskie","source:office":"Państwowe Gospodarstwo Wodne Wody Polskie - dane kontaktowe na dzień 27.11.2024"}}]}}]}}
{"type":"FeatureCollection","features":[{"type":"Feature","properties":{"name":"Zarząd Zlewni w Ciechanowie","office":"government","addr:postcode":"06-400","phone":"+48 23 674 24 50","email":"zz-ciechanow@wody.gov.pl","operator":"Państwowe Gospodarstwo Wodne Wody Polskie","government":"water","source:office":"Państwowe Gospodarstwo Wodne Wody Polskie - dane kontaktowe na dzień 27.11.2024","@id":"node/12328887172"},"geometry":{"type":"Point","coordinates":[20.6030335,52.8795396]}}],"cooperativeWork":{"meta":{"version":2,"type":1},"operations":[{"operationType":"modifyElement","data":{"id":"node/12328887172","operations":[{"operation":"setTags","data":{"addr:postcode":"06-400","phone":"+48 23 674 24 50","email":"zz-ciechanow@wody.gov.pl","operator":"Państwowe Gospodarstwo Wodne Wody Polskie","government":"water","source:office":"Państwowe Gospodarstwo Wodne Wody Polskie - dane kontaktowe na dzień 27.11.2024"}}]}}]}}
{"type":"FeatureCollection","features":[{"type":"Feature","properties":{"name":"Zarząd Zlewni w Dębem","office":"government","opening_hours":"Mo-Fr 07:00-16:00","addr:postcode":"05-140","phone":"+48 22 782 30 00","email":"zz-debe@wody.gov.pl","operator":"Państwowe Gospodarstwo Wodne Wody Polskie","government":"water","source:office":"Państwowe Gospodarstwo Wodne Wody Polskie - dane kontaktowe na dzień 27.11.2024","@id":"node/12328887170"},"geometry":{"type":"Point","coordinates":[20.9264698,52.4869266]}}],"cooperativeWork":{"meta":{"version":2,"type":1},"operations":[{"operationType":"modifyElement","data":{"id":"node/12328887170","operations":[{"operation":"setTags","data":{"addr:postcode":"05-140","phone":"+48 22 782 30 00","email":"zz-debe@wody.gov.pl","operator":"Państwowe Gospodarstwo Wodne Wody Polskie","government":"water","source:office":"Państwowe Gospodarstwo Wodne Wody Polskie - dane kontaktowe na dzień 27.11.2024"}}]}}]}}
{"type":"FeatureCollection","features":[{"type":"Feature","properties":{"name":"Zarząd Zlewni w Piotrkowie Trybunalskim","office":"government","opening_hours":"Mo-Fr 08:00-16:00","addr:postcode":"97-300","phone":"+48 50 997 57 77","email":"zz-piotrkowtrybunalski@wody.gov.pl","operator":"Państwowe Gospodarstwo Wodne Wody Polskie","government":"water","source:office":"Państwowe Gospodarstwo Wodne Wody Polskie - dane kontaktowe na dzień 27.11.2024","@id":"node/12328887175"},"geometry":{"type":"Point","coordinates":[19.6898813,51.4081485]}}],"cooperativeWork":{"meta":{"version":2,"type":1},"operations":[{"operationType":"modifyElement","data":{"id":"node/12328887175","operations":[{"operation":"setTags","data":{"addr:postcode":"97-300","phone":"+48 50 997 57 77","email":"zz-piotrkowtrybunalski@wody.gov.pl","operator":"Państwowe Gospodarstwo Wodne Wody Polskie","government":"water","source:office":"Państwowe Gospodarstwo Wodne Wody Polskie - dane kontaktowe na dzień 27.11.2024"}}]}}]}}
{"type":"FeatureCollection","features":[{"type":"Feature","properties":{"addr:city":"Warszawa","addr:housenumber":"2","addr:postcode":"03-219","addr:street":"Elektronowa","check_date":"2023-05-03","contact:email":"zz-warszawa@wody.gov.pl","contact:phone":"+48 22 112 38 53","contact:website":"http://www.wody.gov.pl/","government":"water","name":"Zarząd Zlewni w Warszawie","office":"government","opening_hours":"Mo-Fr 07:00-16:00","operator":"Państwowe Gospodarstwo Wodne Wody Polskie","phone":"+48 22 112 38 53","email":"zz-warszawa@wody.gov.pl","source:office":"Państwowe Gospodarstwo Wodne Wody Polskie - dane kontaktowe na dzień 27.11.2024","@id":"node/6373040738"},"geometry":{"type":"Point","coordinates":[21.0036074,52.2941655]}}],"cooperativeWork":{"meta":{"version":2,"type":1},"operations":[{"operationType":"modifyElement","data":{"id":"node/6373040738","operations":[{"operation":"setTags","data":{"government":"water","phone":"+48 22 112 38 53","email":"zz-warszawa@wody.gov.pl","source:office":"Państwowe Gospodarstwo Wodne Wody Polskie - dane kontaktowe na dzień 27.11.2024"}}]}}]}}
{"type":"FeatureCollection","features":[{"type":"Feature","properties":{"name":"Zarząd Zlewni we Włocławku","office":"government","opening_hours":"Mo-Fr 07:00-16:00","addr:postcode":"87-800","phone":"+48 54 230 20 34","email":"zz-wloclawek@wody.gov.pl","operator":"Państwowe Gospodarstwo Wodne Wody Polskie","government":"water","source:office":"Państwowe Gospodarstwo Wodne Wody Polskie - dane kontaktowe na dzień 27.11.2024","@id":"node/12328887164"},"geometry":{"type":"Point","coordinates":[19.0600033,52.6566477]}}],"cooperativeWork":{"meta":{"version":2,"type":1},"operations":[{"operationType":"modifyElement","data":{"id":"node/12328887164","operations":[{"operation":"setTags","data":{"addr:postcode":"87-800","phone":"+48 54 230 20 34","email":"zz-wloclawek@wody.gov.pl","operator":"Państwowe Gospodarstwo Wodne Wody Polskie","government":"water","source:office":"Państwowe Gospodarstwo Wodne Wody Polskie - dane kontaktowe na dzień 27.11.2024"}}]}}]}}
{"type":"FeatureCollection","features":[{"type":"Feature","properties":{"addr:city":"Piła","addr:housenumber":"7","addr:postcode":"64-920","addr:street":"Motylewska","government":"water","name":"Zarząd Zlewni w Pile","name:pl":"PGW WP Zarząd Zlewni w Pile","office":"government","opening_hours":"Mo-Fr 07:00-16:00","phone":"+48 67 212 32 44","email":"zz-pila@wody.gov.pl","operator":"Państwowe Gospodarstwo Wodne Wody Polskie","source:office":"Państwowe Gospodarstwo Wodne Wody Polskie - dane kontaktowe na dzień 27.11.2024","@id":"node/7129367988"},"geometry":{"type":"Point","coordinates":[16.7583545,53.1303865]}}],"cooperativeWork":{"meta":{"version":2,"type":1},"operations":[{"operationType":"modifyElement","data":{"id":"node/7129367988","operations":[{"operation":"setTags","data":{"government":"water","name":"Zarząd Zlewni w Pile","phone":"+48 67 212 32 44","email":"zz-pila@wody.gov.pl","operator":"Państwowe Gospodarstwo Wodne Wody Polskie","source:office":"Państwowe Gospodarstwo Wodne Wody Polskie - dane kontaktowe na dzień 27.11.2024"}}]}}]}}
{"type":"FeatureCollection","features":[{"type":"Feature","properties":{"addr:city":"Gdańsk","addr:housenumber":"9/19","addr:postcode":"80-804","addr:street":"Księdza Franciszka Rogaczewskiego","government":"water","name":"Regionalny Zarząd Gospodarki Wodnej w Gdańsku","office":"government","opening_hours":"Mo-Fr 07:00-15:00","website":"https://www.rzgw.gda.pl/","phone":"+48 58 326 18 88","email":"gdansk@wody.gov.pl","short_name":"RZGW w Gdańsku","operator":"Państwowe Gospodarstwo Wodne Wody Polskie","source:office":"Państwowe Gospodarstwo Wodne Wody Polskie - dane kontaktowe na dzień 27.11.2024","@id":"node/5594643921"},"geometry":{"type":"Point","coordinates":[18.6406519,54.3488457]}}],"cooperativeWork":{"meta":{"version":2,"type":1},"operations":[{"operationType":"modifyElement","data":{"id":"node/5594643921","operations":[{"operation":"setTags","data":{"government":"water","name":"Regionalny Zarząd Gospodarki Wodnej w Gdańsku","website":"https://www.rzgw.gda.pl/","phone":"+48 58 326 18 88","email":"gdansk@wody.gov.pl","short_name":"RZGW w Gdańsku","operator":"Państwowe Gospodarstwo Wodne Wody Polskie","source:office":"Państwowe Gospodarstwo Wodne Wody Polskie - dane kontaktowe na dzień 27.11.2024"}}]}}]}}
{"type":"FeatureCollection","features":[{"type":"Feature","properties":{"addr:city":"Chojnice","addr:housenumber":"1","addr:postcode":"89-600","addr:street":"Łużycka","government":"water","name":"Zarząd Zlewni w Chojnicach","office":"government","phone":"+48 52 397 52 02","email":"zz-chojnice@wody.gov.pl","operator":"Państwowe Gospodarstwo Wodne Wody Polskie","source:office":"Państwowe Gospodarstwo Wodne Wody Polskie - dane kontaktowe na dzień 27.11.2024","@id":"node/5605459086"},"geometry":{"type":"Point","coordinates":[17.5713989,53.6861825]}}],"cooperativeWork":{"meta":{"version":2,"type":1},"operations":[{"operationType":"modifyElement","data":{"id":"node/5605459086","operations":[{"operation":"setTags","data":{"government":"water","name":"Zarząd Zlewni w Chojnicach","phone":"+48 52 397 52 02","email":"zz-chojnice@wody.gov.pl","operator":"Państwowe Gospodarstwo Wodne Wody Polskie","source:office":"Państwowe Gospodarstwo Wodne Wody Polskie - dane kontaktowe na dzień 27.11.2024"}}]}}]}}
{"type":"FeatureCollection","features":[{"type":"Feature","properties":{"description":"Państwowe Gospodarstwo Wodne. Wody Polskie","government":"water","name":"Zarząd Zlewni w Gdańsku","office":"government","opening_hours":"Mo-Fr 07:00-16:00","addr:postcode":"80-266","phone":"+48 58 559 92 16","email":"zz-gdansk@wody.gov.pl","operator":"Państwowe Gospodarstwo Wodne Wody Polskie","source:office":"Państwowe Gospodarstwo Wodne Wody Polskie - dane kontaktowe na dzień 27.11.2024","@id":"node/10002944994"},"geometry":{"type":"Point","coordinates":[18.593439,54.3852241]}}],"cooperativeWork":{"meta":{"version":2,"type":1},"operations":[{"operationType":"modifyElement","data":{"id":"node/10002944994","operations":[{"operation":"setTags","data":{"addr:postcode":"80-266","phone":"+48 58 559 92 16","email":"zz-gdansk@wody.gov.pl","operator":"Państwowe Gospodarstwo Wodne Wody Polskie","source:office":"Państwowe Gospodarstwo Wodne Wody Polskie - dane kontaktowe na dzień 27.11.2024"}}]}}]}}
{"type":"FeatureCollection","features":[{"type":"Feature","properties":{"addr:city":"Świecie","addr:city:simc":"929664","addr:housenumber":"2","addr:postcode":"86-105","addr:street":"Fabryczna","description":"Nadzór Wodny Świecie RZGW Gdańsk PGW Wody Polskie","government":"water","name":"Nadzór Wodny w Świeciu","office":"government","opening_hours":"Mo-Fr 07:00-15:00","phone":"+48 57 234 26 45","email":"nw-swiecie@wody.gov.pl","operator":"Państwowe Gospodarstwo Wodne Wody Polskie","source:office":"Państwowe Gospodarstwo Wodne Wody Polskie - dane kontaktowe na dzień 27.11.2024","@id":"node/5605494299"},"geometry":{"type":"Point","coordinates":[18.4058739,53.4009596]}}],"cooperativeWork":{"meta":{"version":2,"type":1},"operations":[{"operationType":"modifyElement","data":{"id":"node/5605494299","operations":[{"operation":"setTags","data":{"government":"water","name":"Nadzór Wodny w Świeciu","phone":"+48 57 234 26 45","email":"nw-swiecie@wody.gov.pl","operator":"Państwowe Gospodarstwo Wodne Wody Polskie","source:office":"Państwowe Gospodarstwo Wodne Wody Polskie - dane kontaktowe na dzień 27.11.2024"}}]}}]}}
{"type":"FeatureCollection","features":[{"type":"Feature","properties":{"government":"water","name":"Nadzór Wodny w Kętach","office":"government","operator":"Państwowe Gospodarstwo Wodne Wody Polskie","addr:postcode":"32-650","phone":"+48 60 918 93 23","email":"nwkety@wody.gov.pl","source:office":"Państwowe Gospodarstwo Wodne Wody Polskie - dane kontaktowe na dzień 27.11.2024","@id":"node/6780949820"},"geometry":{"type":"Point","coordinates":[19.2221863,49.8835729]}}],"cooperativeWork":{"meta":{"version":2,"type":1},"operations":[{"operationType":"modifyElement","data":{"id":"node/6780949820","operations":[{"operation":"setTags","data":{"government":"water","name":"Nadzór Wodny w Kętach","operator":"Państwowe Gospodarstwo Wodne Wody Polskie","addr:postcode":"32-650","phone":"+48 60 918 93 23","email":"nwkety@wody.gov.pl","source:office":"Państwowe Gospodarstwo Wodne Wody Polskie - dane kontaktowe na dzień 27.11.2024"}}]}}]}}
{"type":"FeatureCollection","features":[{"type":"Feature","properties":{"addr:housenumber":"8-10","addr:street":"Plac Grunwaldzki","government":"water","name":"Zarząd Zlewni w Katowicach","office":"government","addr:postcode":"40-127","phone":"+48 32 250 41 27","email":"zz-katowice@wody.gov.pl","operator":"Państwowe Gospodarstwo Wodne Wody Polskie","source:office":"Państwowe Gospodarstwo Wodne Wody Polskie - dane kontaktowe na dzień 27.11.2024","@id":"node/11849760118"},"geometry":{"type":"Point","coordinates":[19.0212264,50.2691724]}}],"cooperativeWork":{"meta":{"version":2,"type":1},"operations":[{"operationType":"modifyElement","data":{"id":"node/11849760118","operations":[{"operation":"setTags","data":{"government":"water","name":"Zarząd Zlewni w Katowicach","addr:postcode":"40-127","phone":"+48 32 250 41 27","email":"zz-katowice@wody.gov.pl","operator":"Państwowe Gospodarstwo Wodne Wody Polskie","source:office":"Państwowe Gospodarstwo Wodne Wody Polskie - dane kontaktowe na dzień 27.11.2024"}}]}}]}}
{"type":"FeatureCollection","features":[{"type":"Feature","properties":{"addr:city":"Biała Podlaska","addr:city:simc":"922018","addr:housenumber":"71","addr:postcode":"21-500","addr:street":"Sitnicka","addr:street:sym_ul":"19941","email":"zz-bialapodlaska@wody.gov.pl","government":"water","name":"Zarząd Zlewni w Białej Podlaskiej","office":"government","official_name":"Państwowe Gospodarstwo Wodne Wody Polskie Nadzór Wodny w Białej Podlaskiej","phone":"+48 83 342 70 50","source:addr":"mbialapodlaska.e-mapa.net","operator":"Państwowe Gospodarstwo Wodne Wody Polskie","source:office":"Państwowe Gospodarstwo Wodne Wody Polskie - dane kontaktowe na dzień 27.11.2024","@id":"node/11708596472"},"geometry":{"type":"Point","coordinates":[23.1078114,52.0400171]}}],"cooperativeWork":{"meta":{"version":2,"type":1},"operations":[{"operationType":"modifyElement","data":{"id":"node/11708596472","operations":[{"operation":"setTags","data":{"email":"zz-bialapodlaska@wody.gov.pl","government":"water","name":"Zarząd Zlewni w Białej Podlaskiej","phone":"+48 83 342 70 50","operator":"Państwowe Gospodarstwo Wodne Wody Polskie","source:office":"Państwowe Gospodarstwo Wodne Wody Polskie - dane kontaktowe na dzień 27.11.2024"}}]}}]}}
{"type":"FeatureCollection","features":[{"type":"Feature","properties":{"name":"Regionalny Zarząd Gospodarki Wodnej w Poznaniu","office":"government","opening_hours":"Mo-Fr 07:00-16:00","website":"https://poznan.wody.gov.pl/","addr:postcode":"61-003","phone":"+48 61 856 77 00","email":"poznan@wody.gov.pl","short_name":"RZGW w Poznaniu","operator":"Państwowe Gospodarstwo Wodne Wody Polskie","government":"water","source:office":"Państwowe Gospodarstwo Wodne Wody Polskie - dane kontaktowe na dzień 27.11.2024","@id":"node/12321528734"},"geometry":{"type":"Point","coordinates":[16.9609979,52.4155564]}}],"cooperativeWork":{"meta":{"version":2,"type":1},"operations":[{"operationType":"modifyElement","data":{"id":"node/12321528734","operations":[{"operation":"setTags","data":{"name":"Regionalny Zarząd Gospodarki Wodnej w Poznaniu","addr:postcode":"61-003","phone":"+48 61 856 77 00","email":"poznan@wody.gov.pl","short_name":"RZGW w Poznaniu","operator":"Państwowe Gospodarstwo Wodne Wody Polskie","government":"water","source:office":"Państwowe Gospodarstwo Wodne Wody Polskie - dane kontaktowe na dzień 27.11.2024"}}]}}]}}
{"type":"FeatureCollection","features":[{"type":"Feature","properties":{"name":"Zarząd Zlewni w Gorzowie Wielkopolskim","office":"government","addr:postcode":"66-400","phone":"+48 95 725 61 53","email":"zz-gorzowwielkopolski@wody.gov.pl","operator":"Państwowe Gospodarstwo Wodne Wody Polskie","government":"water","source:office":"Państwowe Gospodarstwo Wodne Wody Polskie - dane kontaktowe na dzień 27.11.2024","@id":"node/7996995889"},"geometry":{"type":"Point","coordinates":[15.2561792,52.7479844]}}],"cooperativeWork":{"meta":{"version":2,"type":1},"operations":[{"operationType":"modifyElement","data":{"id":"node/7996995889","operations":[{"operation":"setTags","data":{"name":"Zarząd Zlewni w Gorzowie Wielkopolskim","addr:postcode":"66-400","phone":"+48 95 725 61 53","email":"zz-gorzowwielkopolski@wody.gov.pl","operator":"Państwowe Gospodarstwo Wodne Wody Polskie","government":"water","source:office":"Państwowe Gospodarstwo Wodne Wody Polskie - dane kontaktowe na dzień 27.11.2024"}}]}}]}}
{"type":"FeatureCollection","features":[{"type":"Feature","properties":{"name":"Nadzór Wodny w Nowym Tomyślu","note":"Tabliczka umieszczona na budynku","office":"government","addr:postcode":"64-300","phone":"+48 60 088 51 55","email":"nw-nowytomysl@wody.gov.pl","operator":"Państwowe Gospodarstwo Wodne Wody Polskie","government":"water","source:office":"Państwowe Gospodarstwo Wodne Wody Polskie - dane kontaktowe na dzień 27.11.2024","@id":"node/12362364423"},"geometry":{"type":"Point","coordinates":[16.1491333,52.3193854]}}],"cooperativeWork":{"meta":{"version":2,"type":1},"operations":[{"operationType":"modifyElement","data":{"id":"node/12362364423","operations":[{"operation":"setTags","data":{"name":"Nadzór Wodny w Nowym Tomyślu","addr:postcode":"64-300","phone":"+48 60 088 51 55","email":"nw-nowytomysl@wody.gov.pl","operator":"Państwowe Gospodarstwo Wodne Wody Polskie","government":"water","source:office":"Państwowe Gospodarstwo Wodne Wody Polskie - dane kontaktowe na dzień 27.11.2024"}}]}}]}}
{"type":"FeatureCollection","features":[{"type":"Feature","properties":{"name":"Nadzór Wodny w Szamotułach","office":"government","addr:postcode":"64-500","phone":"+48 57 390 16 78","email":"nw-szamotuly@wody.gov.pl","operator":"Państwowe Gospodarstwo Wodne Wody Polskie","government":"water","source:office":"Państwowe Gospodarstwo Wodne Wody Polskie - dane kontaktowe na dzień 27.11.2024","@id":"node/12277018155"},"geometry":{"type":"Point","coordinates":[16.582694,52.6063906]}}],"cooperativeWork":{"meta":{"version":2,"type":1},"operations":[{"operationType":"modifyElement","data":{"id":"node/12277018155","operations":[{"operation":"setTags","data":{"name":"Nadzór Wodny w Szamotułach","addr:postcode":"64-500","phone":"+48 57 390 16 78","email":"nw-szamotuly@wody.gov.pl","operator":"Państwowe Gospodarstwo Wodne Wody Polskie","government":"water","source:office":"Państwowe Gospodarstwo Wodne Wody Polskie - dane kontaktowe na dzień 27.11.2024"}}]}}]}}
{"type":"FeatureCollection","features":[{"type":"Feature","properties":{"name":"Zarząd Zlewni w Krośnie","office":"government","addr:postcode":"38-400","phone":"+48 60 917 06 88","email":"zz-krosno@wody.gov.pl","operator":"Państwowe Gospodarstwo Wodne Wody Polskie","government":"water","source:office":"Państwowe Gospodarstwo Wodne Wody Polskie - dane kontaktowe na dzień 27.11.2024","@id":"node/10884259495"},"geometry":{"type":"Point","coordinates":[21.7761913,49.6790356]}}],"cooperativeWork":{"meta":{"version":2,"type":1},"operations":[{"operationType":"modifyElement","data":{"id":"node/10884259495","operations":[{"operation":"setTags","data":{"name":"Zarząd Zlewni w Krośnie","addr:postcode":"38-400","phone":"+48 60 917 06 88","email":"zz-krosno@wody.gov.pl","operator":"Państwowe Gospodarstwo Wodne Wody Polskie","government":"water","source:office":"Państwowe Gospodarstwo Wodne Wody Polskie - dane kontaktowe na dzień 27.11.2024"}}]}}]}}
{"type":"FeatureCollection","features":[{"type":"Feature","properties":{"government":"water","name":"Nadzór Wodny w Goleniowie","office":"government","addr:postcode":"72-100","phone":"+48 91 418 28 12","email":"nw-goleniow@wody.gov.pl","operator":"Państwowe Gospodarstwo Wodne Wody Polskie","source:office":"Państwowe Gospodarstwo Wodne Wody Polskie - dane kontaktowe na dzień 27.11.2024","@id":"node/11029870150"},"geometry":{"type":"Point","coordinates":[14.8277566,53.5688731]}}],"cooperativeWork":{"meta":{"version":2,"type":1},"operations":[{"operationType":"modifyElement","data":{"id":"node/11029870150","operations":[{"operation":"setTags","data":{"government":"water","name":"Nadzór Wodny w Goleniowie","addr:postcode":"72-100","phone":"+48 91 418 28 12","email":"nw-goleniow@wody.gov.pl","operator":"Państwowe Gospodarstwo Wodne Wody Polskie","source:office":"Państwowe Gospodarstwo Wodne Wody Polskie - dane kontaktowe na dzień 27.11.2024"}}]}}]}}
{"type":"FeatureCollection","features":[{"type":"Feature","properties":{"government":"water","name":"Nadzór Wodny w Skierniewicach","office":"government","addr:postcode":"96-100","phone":"+48 46 833 39 01","email":"nw-skierniewice@wody.gov.pl","operator":"Państwowe Gospodarstwo Wodne Wody Polskie","source:office":"Państwowe Gospodarstwo Wodne Wody Polskie - dane kontaktowe na dzień 27.11.2024","@id":"node/6251067283"},"geometry":{"type":"Point","coordinates":[20.1447797,51.9598101]}}],"cooperativeWork":{"meta":{"version":2,"type":1},"operations":[{"operationType":"modifyElement","data":{"id":"node/6251067283","operations":[{"operation":"setTags","data":{"government":"water","name":"Nadzór Wodny w Skierniewicach","addr:postcode":"96-100","phone":"+48 46 833 39 01","email":"nw-skierniewice@wody.gov.pl","operator":"Państwowe Gospodarstwo Wodne Wody Polskie","source:office":"Państwowe Gospodarstwo Wodne Wody Polskie - dane kontaktowe na dzień 27.11.2024"}}]}}]}}
{"type":"FeatureCollection","features":[{"type":"Feature","properties":{"addr:city":"Białystok","addr:housenumber":"11","addr:street":"Pułkowa","alt_name":"Wody Polskie","building":"yes","building:levels":"5","government":"water","name":"Regionalny Zarząd Gospodarki Wodnej w Białymstoku","office":"government","opening_hours":"Mo-Fr 07:00-16:00; PH off","short_name":"RZGW w Białymstoku","website":"https://bialystok.wody.gov.pl/","addr:postcode":"15-143","phone":"+48 85 733 03 20","email":"bialystok@wody.gov.pl","operator":"Państwowe Gospodarstwo Wodne Wody Polskie","source:office":"Państwowe Gospodarstwo Wodne Wody Polskie - dane kontaktowe na dzień 27.11.2024","@id":"way/211037619"},"geometry":{"type":"Polygon","coordinates":[[[23.1856552,53.1440518],[23.1856515,53.144387],[23.185457,53.1443859],[23.1854642,53.1440517],[23.1856552,53.1440518]]]}}],"cooperativeWork":{"meta":{"version":2,"type":1},"operations":[{"operationType":"modifyElement","data":{"id":"way/211037619","operations":[{"operation":"setTags","data":{"government":"water","addr:postcode":"15-143","phone":"+48 85 733 03 20","email":"bialystok@wody.gov.pl","operator":"Państwowe Gospodarstwo Wodne Wody Polskie","source:office":"Państwowe Gospodarstwo Wodne Wody Polskie - dane kontaktowe na dzień 27.11.2024"}}]}}]}}
{"type":"FeatureCollection","features":[{"type":"Feature","properties":{"addr:city":"Bydgoszcz","addr:housenumber":"15","addr:street":"Aleja Adama Mickiewicza","building":"yes","name":"Regionalny Zarząd Gospodarki Wodnej w Bydgoszczy","office":"government","addr:postcode":"85-071","phone":"+48 52 339 11 00","email":"bydgoszcz@wody.gov.pl","short_name":"RZGW w Bydgoszczy","operator":"Państwowe Gospodarstwo Wodne Wody Polskie","government":"water","source:office":"Państwowe Gospodarstwo Wodne Wody Polskie - dane kontaktowe na dzień 27.11.2024","@id":"way/153787788"},"geometry":{"type":"Polygon","coordinates":[[[18.013264,53.1310518],[18.0133483,53.1311354],[18.0133823,53.1311241],[18.0134933,53.1312388],[18.013314,53.131298],[18.013272,53.1312551],[18.0132474,53.1312627],[18.0131202,53.1311349],[18.0130957,53.1311105],[18.013264,53.1310518]]]}}],"cooperativeWork":{"meta":{"version":2,"type":1},"operations":[{"operationType":"modifyElement","data":{"id":"way/153787788","operations":[{"operation":"setTags","data":{"addr:postcode":"85-071","phone":"+48 52 339 11 00","email":"bydgoszcz@wody.gov.pl","short_name":"RZGW w Bydgoszczy","operator":"Państwowe Gospodarstwo Wodne Wody Polskie","government":"water","source:office":"Państwowe Gospodarstwo Wodne Wody Polskie - dane kontaktowe na dzień 27.11.2024"}}]}}]}}
{"type":"FeatureCollection","features":[{"type":"Feature","properties":{"alt_name":"RZGW Wrocław","check_date:opening_hours":"2022-09-04","government":"water","landuse":"commercial","name":"Regionalny Zarząd Gospodarki Wodnej we Wrocławiu","office":"government","opening_hours:signed":"no","addr:postcode":"50-950","phone":"+48 71 337 88 00","short_name":"RZGW we Wrocławiu","operator":"Państwowe Gospodarstwo Wodne Wody Polskie","source:office":"Państwowe Gospodarstwo Wodne Wody Polskie - dane kontaktowe na dzień 27.11.2024","@id":"way/972224379"},"geometry":{"type":"Polygon","coordinates":[[[17.0626099,51.1109608],[17.0628422,51.1108863],[17.0629951,51.1108369],[17.0630051,51.110849],[17.0630169,51.1108632],[17.0630961,51.1109589],[17.0631009,51.1109574],[17.0631236,51.1109847],[17.0631471,51.1110129],[17.0631437,51.1110141],[17.063325,51.1112384],[17.0633336,51.111249],[17.0633808,51.1113074],[17.0633882,51.1113051],[17.0634182,51.1113409],[17.0632533,51.111395],[17.0632441,51.1113984],[17.0629278,51.1115034],[17.0627628,51.111558],[17.0624684,51.1114019],[17.0624588,51.1113269],[17.0624561,51.1113086],[17.0626086,51.1112434],[17.0626945,51.1112161],[17.062634,51.1111398],[17.062645,51.1111359],[17.0625407,51.1110099],[17.0625237,51.1109892],[17.0626099,51.1109608]]]}}],"cooperativeWork":{"meta":{"version":2,"type":1},"operations":[{"operationType":"modifyElement","data":{"id":"way/972224379","operations":[{"operation":"setTags","data":{"government":"water","addr:postcode":"50-950","phone":"+48 71 337 88 00","short_name":"RZGW we Wrocławiu","operator":"Państwowe Gospodarstwo Wodne Wody Polskie","source:office":"Państwowe Gospodarstwo Wodne Wody Polskie - dane kontaktowe na dzień 27.11.2024"}}]}}]}}
{"type":"FeatureCollection","features":[{"type":"Feature","properties":{"landuse":"commercial","name":"Zarząd Zlewni we Wrocławiu","office":"government","operator":"Państwowe Gospodarstwo Wodne Wody Polskie","addr:postcode":"50-370","phone":"+48 71 757 20 64","email":"zz-wroclaw@wody.gov.pl","government":"water","source:office":"Państwowe Gospodarstwo Wodne Wody Polskie - dane kontaktowe na dzień 27.11.2024","@id":"way/1101449698"},"geometry":{"type":"Polygon","coordinates":[[[17.0648697,51.1066245],[17.0649776,51.1065965],[17.0650938,51.1065988],[17.0650944,51.1065924],[17.0653569,51.1065966],[17.0654509,51.1065999],[17.0654465,51.1066594],[17.0654877,51.1066614],[17.0654877,51.106673],[17.0654959,51.1066909],[17.0655065,51.1067058],[17.065522,51.106714],[17.065544,51.1067227],[17.065566,51.1067263],[17.0655651,51.1067392],[17.0655598,51.1068144],[17.0654402,51.1068182],[17.0654159,51.1068011],[17.065416,51.1068064],[17.0653337,51.1068071],[17.0653327,51.1067648],[17.0652625,51.106767],[17.0649825,51.1067742],[17.0649837,51.1067905],[17.0649597,51.1067912],[17.0649333,51.1067919],[17.0649196,51.1067922],[17.0649185,51.1067759],[17.0648794,51.1067769],[17.064877,51.1067423],[17.0648715,51.1066649],[17.0648697,51.1066245]]]}}],"cooperativeWork":{"meta":{"version":2,"type":1},"operations":[{"operationType":"modifyElement","data":{"id":"way/1101449698","operations":[{"operation":"setTags","data":{"operator":"Państwowe Gospodarstwo Wodne Wody Polskie","addr:postcode":"50-370","phone":"+48 71 757 20 64","email":"zz-wroclaw@wody.gov.pl","government":"water","source:office":"Państwowe Gospodarstwo Wodne Wody Polskie - dane kontaktowe na dzień 27.11.2024"}}]}}]}}
{"type":"FeatureCollection","features":[{"type":"Feature","properties":{"addr:city":"Lublin","addr:housenumber":"3","addr:postcode":"20-610","addr:street":"Leszka Czarnego","building":"office","name":"Regionalny Zarząd Gospodarki Wodnej w Lublinie","office":"government","source":"MPZP","source:addr":"EMUiA (emuia.geoportal.gov.pl)","phone":"+48 81 531 03 00","email":"lublin@wody.gov.pl","short_name":"RZGW w Lublinie","operator":"Państwowe Gospodarstwo Wodne Wody Polskie","government":"water","source:office":"Państwowe Gospodarstwo Wodne Wody Polskie - dane kontaktowe na dzień 27.11.2024","@id":"way/54362940"},"geometry":{"type":"Polygon","coordinates":[[[22.5325736,51.2406698],[22.5325326,51.2406701],[22.5325369,51.2403417],[22.5325551,51.2403418],[22.5325566,51.24023],[22.5327351,51.2402309],[22.5327333,51.2403427],[22.5327525,51.2403429],[22.5327476,51.2406704],[22.5325736,51.2406698]]]}}],"cooperativeWork":{"meta":{"version":2,"type":1},"operations":[{"operationType":"modifyElement","data":{"id":"way/54362940","operations":[{"operation":"setTags","data":{"phone":"+48 81 531 03 00","email":"lublin@wody.gov.pl","short_name":"RZGW w Lublinie","operator":"Państwowe Gospodarstwo Wodne Wody Polskie","government":"water","source:office":"Państwowe Gospodarstwo Wodne Wody Polskie - dane kontaktowe na dzień 27.11.2024"}}]}}]}}
{"type":"FeatureCollection","features":[{"type":"Feature","properties":{"email":"nw-szczecin@wody.gov.pl","government":"water","landuse":"commercial","name":"Nadzór Wodny w Szczecinie","office":"government","operator":"Państwowe Gospodarstwo Wodne Wody Polskie","phone":"+48 91 460 84 94","website":"https://szczecin.wody.gov.pl/","addr:postcode":"70-746","source:office":"Państwowe Gospodarstwo Wodne Wody Polskie - dane kontaktowe na dzień 27.11.2024","@id":"way/779669687"},"geometry":{"type":"Polygon","coordinates":[[[14.5935119,53.3685751],[14.5947637,53.3695843],[14.5939768,53.3699143],[14.5939204,53.3698925],[14.5938359,53.3697378],[14.5938097,53.3696646],[14.5937144,53.3696297],[14.5936497,53.3696314],[14.5933467,53.3696136],[14.5931994,53.3694835],[14.5928332,53.3691572],[14.5926356,53.3689812],[14.592567,53.3690087],[14.5925153,53.3689655],[14.5935119,53.3685751]]]}}],"cooperativeWork":{"meta":{"version":2,"type":1},"operations":[{"operationType":"modifyElement","data":{"id":"way/779669687","operations":[{"operation":"setTags","data":{"government":"water","operator":"Państwowe Gospodarstwo Wodne Wody Polskie","phone":"+48 91 460 84 94","addr:postcode":"70-746","source:office":"Państwowe Gospodarstwo Wodne Wody Polskie - dane kontaktowe na dzień 27.11.2024"}}]}}]}}
{"type":"FeatureCollection","features":[{"type":"Feature","properties":{"email":"nw-gorakalwaria@wody.gov.pl","government":"water","landuse":"commercial","name":"Nadzór Wodny w Górze Kalwarii","office":"government","operator":"Państwowe Gospodarstwo Wodne Wody Polskie","phone":"+48 22 727 35 14","addr:postcode":"05-530","source:office":"Państwowe Gospodarstwo Wodne Wody Polskie - dane kontaktowe na dzień 27.11.2024","@id":"way/1154520050"},"geometry":{"type":"Polygon","coordinates":[[[21.2103178,51.9939271],[21.2103908,51.9938759],[21.210498,51.993799],[21.2118863,51.9942693],[21.2114121,51.9945706],[21.2103178,51.9939271]]]}}],"cooperativeWork":{"meta":{"version":2,"type":1},"operations":[{"operationType":"modifyElement","data":{"id":"way/1154520050","operations":[{"operation":"setTags","data":{"government":"water","operator":"Państwowe Gospodarstwo Wodne Wody Polskie","addr:postcode":"05-530","source:office":"Państwowe Gospodarstwo Wodne Wody Polskie - dane kontaktowe na dzień 27.11.2024"}}]}}]}}
{"type":"FeatureCollection","features":[{"type":"Feature","properties":{"addr:city":"Giżycko","addr:housenumber":"4","addr:postcode":"11-500","addr:street":"Wodna","building":"yes","building:levels":"3","name":"Zarząd Zlewni w Giżycku","office":"government","phone":"+48 87 428 39 92","email":"zz-gizycko@wody.gov.pl","operator":"Państwowe Gospodarstwo Wodne Wody Polskie","government":"water","source:office":"Państwowe Gospodarstwo Wodne Wody Polskie - dane kontaktowe na dzień 27.11.2024","@id":"way/254298837"},"geometry":{"type":"Polygon","coordinates":[[[21.7640711,54.0346363],[21.7641739,54.0348634],[21.7643443,54.0348368],[21.7642416,54.0346097],[21.7640711,54.0346363]]]}}],"cooperativeWork":{"meta":{"version":2,"type":1},"operations":[{"operationType":"modifyElement","data":{"id":"way/254298837","operations":[{"operation":"setTags","data":{"name":"Zarząd Zlewni w Giżycku","phone":"+48 87 428 39 92","email":"zz-gizycko@wody.gov.pl","operator":"Państwowe Gospodarstwo Wodne Wody Polskie","government":"water","source:office":"Państwowe Gospodarstwo Wodne Wody Polskie - dane kontaktowe na dzień 27.11.2024"}}]}}]}}
{"type":"FeatureCollection","features":[{"type":"Feature","properties":{"addr:city":"Lwówek Śląski","addr:housenumber":"24","addr:postcode":"59-600","addr:street":"Jakuba Jaśkiewicza","building":"government","building:colour":"yellowgreen","building:levels":"2","government":"water","name":"Zarząd Zlewni w Lwówku Śląskim","name:full":"Państwowe Gospodarstwo Wodne Wody Polskie - RZGW Wrocław Zarząd Zlewni w Lwówku Śląskim","office":"government","roof:colour":"red","roof:levels":"1","roof:shape":"mansard","source:geometry":"geoportal.gov.pl:ortofoto","phone":"+48 75 782 46 02","email":"zz-lwowekslaski@wody.gov.pl","operator":"Państwowe Gospodarstwo Wodne Wody Polskie","source:office":"Państwowe Gospodarstwo Wodne Wody Polskie - dane kontaktowe na dzień 27.11.2024","@id":"way/194256167"},"geometry":{"type":"Polygon","coordinates":[[[15.5938919,51.1058451],[15.5939768,51.1058826],[15.5940055,51.1058574],[15.5940641,51.105886],[15.5941096,51.1058441],[15.5941292,51.1058534],[15.5941938,51.1057959],[15.5941681,51.1057847],[15.5942269,51.1057391],[15.594221,51.1057354],[15.5942472,51.105713],[15.5941776,51.1056835],[15.594152,51.1057048],[15.594136,51.105698],[15.5941354,51.1056842],[15.5941039,51.1056693],[15.5940819,51.1056756],[15.5940569,51.1056652],[15.5940063,51.1057104],[15.5939849,51.1057055],[15.5939641,51.105707],[15.5939469,51.1057092],[15.5939356,51.1057152],[15.593929,51.1057231],[15.5939237,51.1057354],[15.5939243,51.1057458],[15.5939279,51.1057552],[15.593938,51.1057608],[15.5939469,51.1057649],[15.5938999,51.1058097],[15.5939177,51.1058186],[15.5938919,51.1058451]]]}}],"cooperativeWork":{"meta":{"version":2,"type":1},"operations":[{"operationType":"modifyElement","data":{"id":"way/194256167","operations":[{"operation":"setTags","data":{"government":"water","name":"Zarząd Zlewni w Lwówku Śląskim","phone":"+48 75 782 46 02","email":"zz-lwowekslaski@wody.gov.pl","operator":"Państwowe Gospodarstwo Wodne Wody Polskie","source:office":"Państwowe Gospodarstwo Wodne Wody Polskie - dane kontaktowe na dzień 27.11.2024"}}]}}]}}
{"type":"FeatureCollection","features":[{"type":"Feature","properties":{"addr:city":"Kraków","addr:country":"PL","addr:housenumber":"22","addr:postcode":"31-109","addr:street":"Marszałka Józefa Piłsudskiego","building":"yes","building:levels":"4","name":"Regionalny Zarząd Gospodarki Wodnej w Krakowie","office":"government","official_name":"Państwowe Gospodarstwo Wodne Wody Polskie","old_alt_name":"RZGW Kraków","old_name":"Regionalny Zarząd Gospodarki Wodnej w Krakowie","opening_hours":"Mo-Fr 07:30-15:30","source":"bing","phone":"+48 12 628 41 06","email":"krakow@wody.gov.pl","short_name":"RZGW w Krakowie","operator":"Państwowe Gospodarstwo Wodne Wody Polskie","government":"water","source:office":"Państwowe Gospodarstwo Wodne Wody Polskie - dane kontaktowe na dzień 27.11.2024","@id":"way/143916313"},"geometry":{"type":"Polygon","coordinates":[[[19.9282782,50.0597823],[19.9282867,50.059753],[19.9283495,50.0596881],[19.9284861,50.059678],[19.9284887,50.0596711],[19.9284926,50.0596716],[19.9284923,50.0596725],[19.9290236,50.0597498],[19.9291345,50.0597646],[19.9293033,50.0597885],[19.9292592,50.0599226],[19.9282782,50.0597823]]]}}],"cooperativeWork":{"meta":{"version":2,"type":1},"operations":[{"operationType":"modifyElement","data":{"id":"way/143916313","operations":[{"operation":"setTags","data":{"name":"Regionalny Zarząd Gospodarki Wodnej w Krakowie","phone":"+48 12 628 41 06","email":"krakow@wody.gov.pl","short_name":"RZGW w Krakowie","operator":"Państwowe Gospodarstwo Wodne Wody Polskie","government":"water","source:office":"Państwowe Gospodarstwo Wodne Wody Polskie - dane kontaktowe na dzień 27.11.2024"}}]}}]}}
{"type":"FeatureCollection","features":[{"type":"Feature","properties":{"building":"yes","name":"Nadzór Wodny w Jędrzejowie","office":"government","addr:postcode":"28-300","phone":"+48 53 203 31 40","email":"nwjedrzejow@wody.gov.pl","operator":"Państwowe Gospodarstwo Wodne Wody Polskie","government":"water","source:office":"Państwowe Gospodarstwo Wodne Wody Polskie - dane kontaktowe na dzień 27.11.2024","@id":"way/352106484"},"geometry":{"type":"Polygon","coordinates":[[[20.2971185,50.6397704],[20.2971088,50.6397737],[20.2970454,50.6397025],[20.2970577,50.6396977],[20.2970273,50.6396657],[20.2971349,50.6396243],[20.297142,50.6396318],[20.2971316,50.6396359],[20.2971554,50.63966],[20.2971703,50.6396541],[20.2972361,50.6397285],[20.2972203,50.6397341],[20.2972431,50.6397599],[20.2972561,50.6397549],[20.2972623,50.6397616],[20.2971489,50.6398049],[20.2971185,50.6397704]]]}}],"cooperativeWork":{"meta":{"version":2,"type":1},"operations":[{"operationType":"modifyElement","data":{"id":"way/352106484","operations":[{"operation":"setTags","data":{"name":"Nadzór Wodny w Jędrzejowie","addr:postcode":"28-300","phone":"+48 53 203 31 40","email":"nwjedrzejow@wody.gov.pl","operator":"Państwowe Gospodarstwo Wodne Wody Polskie","government":"water","source:office":"Państwowe Gospodarstwo Wodne Wody Polskie - dane kontaktowe na dzień 27.11.2024"}}]}}]}}
{"type":"FeatureCollection","features":[{"type":"Feature","properties":{"addr:city":"Opole","addr:housenumber":"2","addr:postcode":"45-089","addr:street":"Odrowążów","building":"commercial","building:levels":"3","contact:email":"zz-opole@wody.gov.pl","contact:phone":"+48 (77) 407 47 05","government":"water","name":"Zarząd Zlewni w Opolu","office":"government","source":"UM Opole","phone":"+48 77 407 47 05","email":"zz-opole@wody.gov.pl","operator":"Państwowe Gospodarstwo Wodne Wody Polskie","source:office":"Państwowe Gospodarstwo Wodne Wody Polskie - dane kontaktowe na dzień 27.11.2024","@id":"way/207020181"},"geometry":{"type":"Polygon","coordinates":[[[17.9160974,50.6629733],[17.9160651,50.6630163],[17.916203,50.6630583],[17.9161913,50.6630737],[17.9162378,50.6630881],[17.9163024,50.6630051],[17.9162986,50.663004],[17.9164017,50.6628669],[17.9163349,50.6628466],[17.9163488,50.6628275],[17.91628,50.6628065],[17.916275,50.6627978],[17.9162665,50.6627991],[17.9162731,50.6628076],[17.9162594,50.6628228],[17.9162236,50.6628114],[17.916143,50.6629185],[17.9161139,50.6629096],[17.9160661,50.6629729],[17.9160757,50.6629758],[17.9160812,50.6629684],[17.9160974,50.6629733]]]}}],"cooperativeWork":{"meta":{"version":2,"type":1},"operations":[{"operationType":"modifyElement","data":{"id":"way/207020181","operations":[{"operation":"setTags","data":{"government":"water","name":"Zarząd Zlewni w Opolu","phone":"+48 77 407 47 05","email":"zz-opole@wody.gov.pl","operator":"Państwowe Gospodarstwo Wodne Wody Polskie","source:office":"Państwowe Gospodarstwo Wodne Wody Polskie - dane kontaktowe na dzień 27.11.2024"}}]}}]}}
{"type":"FeatureCollection","features":[{"type":"Feature","properties":{"addr:city":"Koło","addr:city:simc":"949052","addr:housenumber":"3","addr:postcode":"62-600","addr:street":"Bolesława Prusa","addr:street:sym_ul":"17577","building":"office","building:levels":"2","government":"water","name":"Zarząd Zlewni w Kole","office":"government","source":"www.geoportal.gov.pl","source:addr":"mkolo.e-mapa.net","phone":"+48 63 288 01 70","email":"zz-kolo@wody.gov.pl","operator":"Państwowe Gospodarstwo Wodne Wody Polskie","source:office":"Państwowe Gospodarstwo Wodne Wody Polskie - dane kontaktowe na dzień 27.11.2024","@id":"way/353773798"},"geometry":{"type":"Polygon","coordinates":[[[18.6385482,52.201105],[18.6387174,52.2011439],[18.6388279,52.2009625],[18.6388422,52.2009659],[18.6388904,52.2008867],[18.6388761,52.2008834],[18.6389315,52.2007926],[18.6387623,52.2007536],[18.6385482,52.201105]]]}}],"cooperativeWork":{"meta":{"version":2,"type":1},"operations":[{"operationType":"modifyElement","data":{"id":"way/353773798","operations":[{"operation":"setTags","data":{"name":"Zarząd Zlewni w Kole","phone":"+48 63 288 01 70","email":"zz-kolo@wody.gov.pl","operator":"Państwowe Gospodarstwo Wodne Wody Polskie","source:office":"Państwowe Gospodarstwo Wodne Wody Polskie - dane kontaktowe na dzień 27.11.2024"}}]}}]}}
{"type":"FeatureCollection","features":[{"type":"Feature","properties":{"addr:city":"Przemyśl","addr:housenumber":"6","addr:postcode":"37-700","addr:street":"Wybrzeże Ojca Świętego Jana Pawła II","building":"yes","building:levels":"3","name":"Zarząd Zlewni w Przemyślu","office":"government","roof:levels":"1","roof:shape":"hipped","phone":"+48 16 670 38 08","email":"zz-przemysl@wody.gov.pl","operator":"Państwowe Gospodarstwo Wodne Wody Polskie","government":"water","source:office":"Państwowe Gospodarstwo Wodne Wody Polskie - dane kontaktowe na dzień 27.11.2024","@id":"way/238653512"},"geometry":{"type":"Polygon","coordinates":[[[22.7633816,49.7840404],[22.763484,49.7839501],[22.7636428,49.7840262],[22.7636501,49.7840198],[22.7636916,49.7840388],[22.7636135,49.7841113],[22.763611,49.7841103],[22.7635837,49.7841358],[22.7633816,49.7840404]]]}}],"cooperativeWork":{"meta":{"version":2,"type":1},"operations":[{"operationType":"modifyElement","data":{"id":"way/238653512","operations":[{"operation":"setTags","data":{"name":"Zarząd Zlewni w Przemyślu","phone":"+48 16 670 38 08","email":"zz-przemysl@wody.gov.pl","operator":"Państwowe Gospodarstwo Wodne Wody Polskie","government":"water","source:office":"Państwowe Gospodarstwo Wodne Wody Polskie - dane kontaktowe na dzień 27.11.2024"}}]}}]}}
